[{"OBJECT_NAME":"STARLINK-34855","OBJECT_ID":"2025-192N","EPOCH":"2026-03-09T17:20:13.620768","MEAN_MOTION":15.30192662,"ECCENTRICITY":0.00014519,"INCLINATION":53.1598,"RA_OF_ASC_NODE":232.5949,"ARG_OF_PERICENTER":55.9663,"MEAN_ANOMALY":304.1475,"EPHEMERIS_TYPE":0,"CLASSIFICATION_TYPE":"U","NORAD_CAT_ID":65416,"ELEMENT_SET_NO":999,"REV_AT_EPOCH":2938,"BSTAR":0.0010857961,"MEAN_MOTION_DOT":0.0003193,"MEAN_MOTION_DDOT":0},{"OBJECT_NAME":"CZ-4B R\/B","OBJECT_ID":"2010-051C","EPOCH":"2026-03-09T16:48:37.977120","MEAN_MOTION":15.17426017,"ECCENTRICITY":0.00758037,"INCLINATION":97.7974,"RA_OF_ASC_NODE":110.8647,"ARG_OF_PERICENTER":95.044,"MEAN_ANOMALY":265.9451,"EPHEMERIS_TYPE":0,"CLASSIFICATION_TYPE":"U","NORAD_CAT_ID":37181,"ELEMENT_SET_NO":999,"REV_AT_EPOCH":84355,"BSTAR":0.00029718512,"MEAN_MOTION_DOT":6.328e-5,"MEAN_MOTION_DDOT":0}]
